AOR-E (EGNOS/PRN 120)   
1 24307U 96053A   18062.68868778 -.00000150  00000-0  00000-0 0  9991
2 24307   3.1552  76.4469 0008146 263.4631  53.9059  1.00271964 78639
CRE (WAAS/PRN 138)      
1 28868U 05036A   18062.49077094 -.00000102  00000-0  00000+0 0  9996
2 28868   0.0127 141.3600 0003039 221.8462 227.3798  1.00270770 45796
CRW (WAAS/PRN 135)      
1 28884U 05041A   18062.44490365  .00000051  00000-0  00000-0 0  9998
2 28884   0.0509 280.7492 0001765  61.9619 205.5950  1.00271915 45392
IOR-W (EGNOS/PRN 126)   
1 28899U 05044A   18062.42161102 -.00000015  00000-0  00000-0 0  9990
2 28899   2.6414  16.4685 0003839 341.7687  18.5584  1.00272915 45146
MTSAT-2 (MSAS/PRN 137)  
1 28937U 06004A   18063.54266278 -.00000268  00000-0  00000+0 0  9993
2 28937   0.0297 267.2467 0003584  78.6103 156.7412  1.00272474 44009
QZS-1 (QZSS/PRN 183)    
1 37158U 10045A   18057.58608321 -.00000224  00000-0  00000-0 0  9997
2 37158  41.0097 155.6421 0758648 270.3833  78.6842  1.00255863 27302
GSAT-8 (GAGAN/PRN 127)  
1 37605U 11022A   18062.87757615  .00000058  00000-0  00000-0 0  9993
2 37605   0.0136 169.6298 0006599 125.7080 237.2110  1.00273032 22868
LUCH 5A (SDCM/PRN 140)  
1 37951U 11074B   18062.73749373 -.00000072  00000-0  00000+0 0  9997
2 37951   1.7304 157.8033 0005051 175.6368 260.4745  1.00274733 22836
SES-5 (EGNOS/PRN 136)   
1 38652U 12036A   18062.47893247  .00000006  00000-0  00000+0 0  9992
2 38652   0.0384 257.6396 0002252  82.4914 358.4260  1.00271965 20706
GSAT-10 (GAGAN/PRN 128) 
1 38779U 12051B   18062.32206745 -.00000193  00000-0  00000-0 0  9993
2 38779   0.1031 266.1609 0001021 130.6275 323.1843  1.00271559 19766
LUCH 5B (SDCM/PRN 125)  
1 38977U 12061A   18062.90473961 -.00000156  00000-0  00000-0 0  9993
2 38977   4.0589  72.8467 0005469 262.7082 135.4994  1.00271861 19828
ASTRA 5B (EGNOS/PRN 123)
1 39617U 14011B   18063.13980333  .00000128  00000-0  00000+0 0  9991
2 39617   0.0731 302.6936 0003438  40.9985 259.9365  1.00271922 14515
LUCH 5V (SDCM/PRN 141)  
1 39727U 14023A   18063.00317758 -.00000295  00000-0  00000+0 0  9993
2 39727   2.1895 299.1486 0003892  54.7406 263.6075  1.00268482532169
GSAT-15 (GAGAN/PRN 139) 
1 41028U 15065A   18063.29037901 -.00000284  00000-0  00000+0 0  9995
2 41028   0.0514 277.6696 0001649  65.5828  16.7093  1.00271339  8510
E 117 W B (WAAS/PRN 131)
1 41589U 16038B   18062.87607793 -.00000039  00000-0  00000+0 0  9991
2 41589   0.0110 345.0463 0000257 210.0202 164.8995  1.00271893  6354
QZS-2 (QZSS/PRN 184)    
1 42738U 17028A   18062.93472674 -.00000204  00000-0  00000+0 0  9997
2 42738  44.3702 286.0181 0737666 271.1220  80.4721  1.00279382  2794
